[{"OBJECT_NAME":"YAOGAN-30 02B","OBJECT_ID":"2017-058B","EPOCH":"2026-03-09T22:20:48.449184","MEAN_MOTION":15.02255785,"ECCENTRICITY":0.00019399,"INCLINATION":34.9967,"RA_OF_ASC_NODE":274.9762,"ARG_OF_PERICENTER":191.875,"MEAN_ANOMALY":168.1912,"EPHEMERIS_TYPE":0,"CLASSIFICATION_TYPE":"U","NORAD_CAT_ID":42946,"ELEMENT_SET_NO":999,"REV_AT_EPOCH":46092,"BSTAR":0.0003113928,"MEAN_MOTION_DOT":4.165e-5,"MEAN_MOTION_DDOT":0},{"OBJECT_NAME":"STARLINK-5746","OBJECT_ID":"2023-083BC","EPOCH":"2026-03-09T23:00:04.749984","MEAN_MOTION":15.0380119,"ECCENTRICITY":0.00024094,"INCLINATION":43.0019,"RA_OF_ASC_NODE":67.0685,"ARG_OF_PERICENTER":315.3692,"MEAN_ANOMALY":44.6957,"EPHEMERIS_TYPE":0,"CLASSIFICATION_TYPE":"U","NORAD_CAT_ID":56926,"ELEMENT_SET_NO":999,"REV_AT_EPOCH":15186,"BSTAR":0.0075848224,"MEAN_MOTION_DOT":0.00107397,"MEAN_MOTION_DDOT":0}]
